[{"OBJECT_NAME":"STARLINK-31575","OBJECT_ID":"2024-068S","EPOCH":"2026-03-09T07:11:08.114208","MEAN_MOTION":15.27570718,"ECCENTRICITY":0.00014864,"INCLINATION":43.0058,"RA_OF_ASC_NODE":33.2061,"ARG_OF_PERICENTER":252.8034,"MEAN_ANOMALY":107.2655,"EPHEMERIS_TYPE":0,"CLASSIFICATION_TYPE":"U","NORAD_CAT_ID":59471,"ELEMENT_SET_NO":999,"REV_AT_EPOCH":10850,"BSTAR":-5.8305001e-5,"MEAN_MOTION_DOT":-1.866e-5,"MEAN_MOTION_DDOT":0},{"OBJECT_NAME":"COSMOS 2251 DEB","OBJECT_ID":"1993-036AWN","EPOCH":"2026-03-09T06:26:08.321568","MEAN_MOTION":15.11257706,"ECCENTRICITY":0.00842289,"INCLINATION":74.0116,"RA_OF_ASC_NODE":284.5024,"ARG_OF_PERICENTER":350.308,"MEAN_ANOMALY":9.6482,"EPHEMERIS_TYPE":0,"CLASSIFICATION_TYPE":"U","NORAD_CAT_ID":35996,"ELEMENT_SET_NO":999,"REV_AT_EPOCH":73632,"BSTAR":0.00055219842,"MEAN_MOTION_DOT":0.00010085,"MEAN_MOTION_DDOT":0}]
